{"fetched_at":"2026-07-08T07:04:15.299Z","source":"https://celestrak.org/NORAD/elements/gp.php?NAME=RCM&FORMAT=JSON","constellation":"rcm","records":[{"OBJECT_NAME":"RCM-1","OBJECT_ID":"2019-033A","EPOCH":"2026-07-07T20:23:34.067904","CLASSIFICATION_TYPE":"U","MEAN_MOTION":14.92587146,"ECCENTRICITY":0.0001505,"INCLINATION":97.7599,"RA_OF_ASC_NODE":196.0038,"ARG_OF_PERICENTER":90.9456,"MEAN_ANOMALY":269.1936,"EPHEMERIS_TYPE":0,"NORAD_CAT_ID":44322,"ELEMENT_SET_NO":999,"REV_AT_EPOCH":38516,"BSTAR":0.000070184,"MEAN_MOTION_DOT":0.00000666,"MEAN_MOTION_DDOT":0},{"OBJECT_NAME":"RCM-3","OBJECT_ID":"2019-033B","EPOCH":"2026-07-07T20:56:07.041408","CLASSIFICATION_TYPE":"U","MEAN_MOTION":14.92584719,"ECCENTRICITY":0.0001538,"INCLINATION":97.76,"RA_OF_ASC_NODE":196.1204,"ARG_OF_PERICENTER":87.9089,"MEAN_ANOMALY":272.2306,"EPHEMERIS_TYPE":0,"NORAD_CAT_ID":44323,"ELEMENT_SET_NO":999,"REV_AT_EPOCH":38518,"BSTAR":-0.000020229,"MEAN_MOTION_DOT":-0.00000264,"MEAN_MOTION_DDOT":0},{"OBJECT_NAME":"RCM-2","OBJECT_ID":"2019-033C","EPOCH":"2026-07-07T15:01:57.131616","CLASSIFICATION_TYPE":"U","MEAN_MOTION":14.925903,"ECCENTRICITY":0.0001512,"INCLINATION":97.7601,"RA_OF_ASC_NODE":195.8283,"ARG_OF_PERICENTER":89.1175,"MEAN_ANOMALY":271.0218,"EPHEMERIS_TYPE":0,"NORAD_CAT_ID":44324,"ELEMENT_SET_NO":999,"REV_AT_EPOCH":38513,"BSTAR":0.000017667,"MEAN_MOTION_DOT":0.00000126,"MEAN_MOTION_DDOT":0}]}
