RCM-1                   
1 44322U 19033A   26188.84969986  .00000666  00000+0  70184-4 0  9996
2 44322  97.7599 196.0038 0001505  90.9456 269.1936 14.92587146385160
RCM-3                   
1 44323U 19033B   26188.87230372 -.00000264  00000+0 -20229-4 0  9991
2 44323  97.7600 196.1204 0001538  87.9089 272.2306 14.92584719385185
RCM-2                   
1 44324U 19033C   26188.62635569  .00000126  00000+0  17667-4 0  9999
2 44324  97.7601 195.8283 0001512  89.1175 271.0218 14.92590300385139
